[{"OBJECT_NAME":"STARLINK-5689","OBJECT_ID":"2023-015AB","EPOCH":"2026-03-20T04:00:01.999584","MEAN_MOTION":15.22387895,"ECCENTRICITY":0.00012396,"INCLINATION":42.9995,"RA_OF_ASC_NODE":280.6725,"ARG_OF_PERICENTER":280.5976,"MEAN_ANOMALY":175.519,"EPHEMERIS_TYPE":0,"CLASSIFICATION_TYPE":"U","NORAD_CAT_ID":55474,"ELEMENT_SET_NO":999,"REV_AT_EPOCH":572,"BSTAR":0.0033820626,"MEAN_MOTION_DOT":0.00080261,"MEAN_MOTION_DDOT":0},{"OBJECT_NAME":"STARLINK-5650","OBJECT_ID":"2023-015AC","EPOCH":"2026-03-20T04:00:01.999584","MEAN_MOTION":15.10957903,"ECCENTRICITY":0.00012345,"INCLINATION":42.9996,"RA_OF_ASC_NODE":268.462,"ARG_OF_PERICENTER":285.1284,"MEAN_ANOMALY":194.4224,"EPHEMERIS_TYPE":0,"CLASSIFICATION_TYPE":"U","NORAD_CAT_ID":55475,"ELEMENT_SET_NO":999,"REV_AT_EPOCH":577,"BSTAR":0.0011684271,"MEAN_MOTION_DOT":0.00019667,"MEAN_MOTION_DDOT":0},{"OBJECT_NAME":"STARLINK-5685","OBJECT_ID":"2023-015AE","EPOCH":"2026-03-18T05:39:47.244672","MEAN_MOTION":15.03306209,"ECCENTRICITY":0.00017246,"INCLINATION":43.0011,"RA_OF_ASC_NODE":267.0515,"ARG_OF_PERICENTER":211.383,"MEAN_ANOMALY":148.691,"EPHEMERIS_TYPE":0,"CLASSIFICATION_TYPE":"U","NORAD_CAT_ID":55477,"ELEMENT_SET_NO":999,"REV_AT_EPOCH":17218,"BSTAR":0.0057546802,"MEAN_MOTION_DOT":0.0008005,"MEAN_MOTION_DDOT":0},{"OBJECT_NAME":"STARLINK-5691","OBJECT_ID":"2023-015AF","EPOCH":"2026-03-18T05:38:56.268672","MEAN_MOTION":15.02969072,"ECCENTRICITY":0.00025508,"INCLINATION":43.0002,"RA_OF_ASC_NODE":267.0455,"ARG_OF_PERICENTER":237.0387,"MEAN_ANOMALY":123.021,"EPHEMERIS_TYPE":0,"CLASSIFICATION_TYPE":"U","NORAD_CAT_ID":55478,"ELEMENT_SET_NO":999,"REV_AT_EPOCH":17218,"BSTAR":0.0035763446,"MEAN_MOTION_DOT":0.00049009,"MEAN_MOTION_DDOT":0},{"OBJECT_NAME":"STARLINK-5688","OBJECT_ID":"2023-015AG","EPOCH":"2026-03-20T04:10:13.670112","MEAN_MOTION":15.02547392,"ECCENTRICITY":0.00012448,"INCLINATION":43.0029,"RA_OF_ASC_NODE":256.6511,"ARG_OF_PERICENTER":266.0048,"MEAN_ANOMALY":94.0652,"EPHEMERIS_TYPE":0,"CLASSIFICATION_TYPE":"U","NORAD_CAT_ID":55479,"ELEMENT_SET_NO":999,"REV_AT_EPOCH":17247,"BSTAR":7.5900307e-5,"MEAN_MOTION_DOT":8.22e-6,"MEAN_MOTION_DDOT":0},{"OBJECT_NAME":"STARLINK-5690","OBJECT_ID":"2023-015AH","EPOCH":"2026-03-20T04:00:01.999584","MEAN_MOTION":15.25367222,"ECCENTRICITY":0.00020564,"INCLINATION":42.9994,"RA_OF_ASC_NODE":280.0103,"ARG_OF_PERICENTER":267.062,"MEAN_ANOMALY":72.6708,"EPHEMERIS_TYPE":0,"CLASSIFICATION_TYPE":"U","NORAD_CAT_ID":55480,"ELEMENT_SET_NO":999,"REV_AT_EPOCH":581,"BSTAR":0.030569484,"MEAN_MOTION_DOT":0.00844248,"MEAN_MOTION_DDOT":0},{"OBJECT_NAME":"STARLINK-5694","OBJECT_ID":"2023-015AJ","EPOCH":"2026-03-20T04:00:01.999584","MEAN_MOTION":15.24337573,"ECCENTRICITY":0.0001798,"INCLINATION":42.9992,"RA_OF_ASC_NODE":280.3218,"ARG_OF_PERICENTER":249.922,"MEAN_ANOMALY":354.7264,"EPHEMERIS_TYPE":0,"CLASSIFICATION_TYPE":"U","NORAD_CAT_ID":55481,"ELEMENT_SET_NO":999,"REV_AT_EPOCH":576,"BSTAR":0.030693991,"MEAN_MOTION_DOT":0.00820367,"MEAN_MOTION_DDOT":0},{"OBJECT_NAME":"STARLINK-5692","OBJECT_ID":"2023-015AL","EPOCH":"2026-03-20T04:00:01.999584","MEAN_MOTION":15.25985961,"ECCENTRICITY":0.00019268,"INCLINATION":42.9992,"RA_OF_ASC_NODE":280.0497,"ARG_OF_PERICENTER":273.836,"MEAN_ANOMALY":84.3757,"EPHEMERIS_TYPE":0,"CLASSIFICATION_TYPE":"U","NORAD_CAT_ID":55483,"ELEMENT_SET_NO":999,"REV_AT_EPOCH":581,"BSTAR":0.029707698,"MEAN_MOTION_DOT":0.00835175,"MEAN_MOTION_DDOT":0},{"OBJECT_NAME":"STARLINK-5696","OBJECT_ID":"2023-015AM","EPOCH":"2026-03-20T04:00:01.999584","MEAN_MOTION":15.21369333,"ECCENTRICITY":0.00016923,"INCLINATION":43.0023,"RA_OF_ASC_NODE":280.6481,"ARG_OF_PERICENTER":264.9854,"MEAN_ANOMALY":199.4165,"EPHEMERIS_TYPE":0,"CLASSIFICATION_TYPE":"U","NORAD_CAT_ID":55484,"ELEMENT_SET_NO":999,"REV_AT_EPOCH":581,"BSTAR":0.023316197,"MEAN_MOTION_DOT":0.0056935,"MEAN_MOTION_DDOT":0},{"OBJECT_NAME":"STARLINK-5695","OBJECT_ID":"2023-015AN","EPOCH":"2026-03-20T04:00:01.999584","MEAN_MOTION":15.23180937,"ECCENTRICITY":0.00011741,"INCLINATION":42.999,"RA_OF_ASC_NODE":280.4365,"ARG_OF_PERICENTER":261.7356,"MEAN_ANOMALY":291.1411,"EPHEMERIS_TYPE":0,"CLASSIFICATION_TYPE":"U","NORAD_CAT_ID":55485,"ELEMENT_SET_NO":999,"REV_AT_EPOCH":576,"BSTAR":0.0027328168,"MEAN_MOTION_DOT":0.00066222,"MEAN_MOTION_DDOT":0},{"OBJECT_NAME":"STARLINK-5704","OBJECT_ID":"2023-015AP","EPOCH":"2026-03-20T04:00:01.999584","MEAN_MOTION":15.2496236,"ECCENTRICITY":0.00012723,"INCLINATION":42.9995,"RA_OF_ASC_NODE":280.6191,"ARG_OF_PERICENTER":267.1824,"MEAN_ANOMALY":189.5187,"EPHEMERIS_TYPE":0,"CLASSIFICATION_TYPE":"U","NORAD_CAT_ID":55486,"ELEMENT_SET_NO":999,"REV_AT_EPOCH":581,"BSTAR":0.058340648,"MEAN_MOTION_DOT":0.0163892,"MEAN_MOTION_DDOT":0},{"OBJECT_NAME":"STARLINK-5701","OBJECT_ID":"2023-015AQ","EPOCH":"2026-03-20T04:00:01.999584","MEAN_MOTION":15.23989336,"ECCENTRICITY":0.00012704,"INCLINATION":42.999,"RA_OF_ASC_NODE":280.4714,"ARG_OF_PERICENTER":264.1173,"MEAN_ANOMALY":276.3237,"EPHEMERIS_TYPE":0,"CLASSIFICATION_TYPE":"U","NORAD_CAT_ID":55487,"ELEMENT_SET_NO":999,"REV_AT_EPOCH":576,"BSTAR":0.033166796,"MEAN_MOTION_DOT":0.00882025,"MEAN_MOTION_DDOT":0},{"OBJECT_NAME":"STARLINK-5706","OBJECT_ID":"2023-015AR","EPOCH":"2026-03-20T04:00:01.999584","MEAN_MOTION":15.22376784,"ECCENTRICITY":0.00013254,"INCLINATION":42.9988,"RA_OF_ASC_NODE":280.3649,"ARG_OF_PERICENTER":256.6717,"MEAN_ANOMALY":322.7409,"EPHEMERIS_TYPE":0,"CLASSIFICATION_TYPE":"U","NORAD_CAT_ID":55488,"ELEMENT_SET_NO":999,"REV_AT_EPOCH":566,"BSTAR":0.0021997814,"MEAN_MOTION_DOT":0.00051897,"MEAN_MOTION_DDOT":0},{"OBJECT_NAME":"STARLINK-5371","OBJECT_ID":"2023-015AS","EPOCH":"2026-03-20T04:00:01.999584","MEAN_MOTION":15.23441924,"ECCENTRICITY":0.00018247,"INCLINATION":42.9992,"RA_OF_ASC_NODE":280.3217,"ARG_OF_PERICENTER":251.7384,"MEAN_ANOMALY":351.5855,"EPHEMERIS_TYPE":0,"CLASSIFICATION_TYPE":"U","NORAD_CAT_ID":55489,"ELEMENT_SET_NO":999,"REV_AT_EPOCH":571,"BSTAR":0.032045216,"MEAN_MOTION_DOT":0.00835068,"MEAN_MOTION_DDOT":0},{"OBJECT_NAME":"STARLINK-5373","OBJECT_ID":"2023-015AT","EPOCH":"2026-03-20T04:00:01.999584","MEAN_MOTION":15.26747703,"ECCENTRICITY":0.00016564,"INCLINATION":43.0002,"RA_OF_ASC_NODE":280.0416,"ARG_OF_PERICENTER":268.2893,"MEAN_ANOMALY":88.2316,"EPHEMERIS_TYPE":0,"CLASSIFICATION_TYPE":"U","NORAD_CAT_ID":55490,"ELEMENT_SET_NO":999,"REV_AT_EPOCH":581,"BSTAR":-8.8751937e-5,"MEAN_MOTION_DOT":-2.64e-5,"MEAN_MOTION_DDOT":0},{"OBJECT_NAME":"STARLINK-5364","OBJECT_ID":"2023-015AU","EPOCH":"2026-03-20T04:11:39.866208","MEAN_MOTION":15.02547806,"ECCENTRICITY":0.00012387,"INCLINATION":43.0027,"RA_OF_ASC_NODE":255.7912,"ARG_OF_PERICENTER":281.7595,"MEAN_ANOMALY":78.3109,"EPHEMERIS_TYPE":0,"CLASSIFICATION_TYPE":"U","NORAD_CAT_ID":55491,"ELEMENT_SET_NO":999,"REV_AT_EPOCH":17248,"BSTAR":6.3254983e-5,"MEAN_MOTION_DOT":6.51e-6,"MEAN_MOTION_DDOT":0},{"OBJECT_NAME":"STARLINK-5013","OBJECT_ID":"2023-015AV","EPOCH":"2026-03-20T04:00:01.999584","MEAN_MOTION":15.22822547,"ECCENTRICITY":0.00014539,"INCLINATION":42.9985,"RA_OF_ASC_NODE":280.4634,"ARG_OF_PERICENTER":258.9634,"MEAN_ANOMALY":281.5125,"EPHEMERIS_TYPE":0,"CLASSIFICATION_TYPE":"U","NORAD_CAT_ID":55492,"ELEMENT_SET_NO":999,"REV_AT_EPOCH":581,"BSTAR":0.07053515,"MEAN_MOTION_DOT":0.01852369,"MEAN_MOTION_DDOT":0},{"OBJECT_NAME":"STARLINK-5362","OBJECT_ID":"2023-015AW","EPOCH":"2026-03-20T04:00:01.999584","MEAN_MOTION":15.25154218,"ECCENTRICITY":0.0001779,"INCLINATION":42.9997,"RA_OF_ASC_NODE":279.9754,"ARG_OF_PERICENTER":274.9843,"MEAN_ANOMALY":111.9703,"EPHEMERIS_TYPE":0,"CLASSIFICATION_TYPE":"U","NORAD_CAT_ID":55493,"ELEMENT_SET_NO":999,"REV_AT_EPOCH":581,"BSTAR":0.031298917,"MEAN_MOTION_DOT":0.00860084,"MEAN_MOTION_DDOT":0},{"OBJECT_NAME":"STARLINK-5344","OBJECT_ID":"2023-015AX","EPOCH":"2026-03-20T06:00:02.999808","MEAN_MOTION":15.22170134,"ECCENTRICITY":0.00023662,"INCLINATION":42.9995,"RA_OF_ASC_NODE":279.8352,"ARG_OF_PERICENTER":257.0948,"MEAN_ANOMALY":87.9784,"EPHEMERIS_TYPE":0,"CLASSIFICATION_TYPE":"U","NORAD_CAT_ID":55494,"ELEMENT_SET_NO":999,"REV_AT_EPOCH":578,"BSTAR":0.00018629957,"MEAN_MOTION_DOT":4.113e-5,"MEAN_MOTION_DDOT":0},{"OBJECT_NAME":"STARLINK-5100","OBJECT_ID":"2023-015AY","EPOCH":"2026-03-18T11:56:59.420544","MEAN_MOTION":15.03053107,"ECCENTRICITY":0.00014708,"INCLINATION":43.0029,"RA_OF_ASC_NODE":265.5786,"ARG_OF_PERICENTER":277.9929,"MEAN_ANOMALY":82.0747,"EPHEMERIS_TYPE":0,"CLASSIFICATION_TYPE":"U","NORAD_CAT_ID":55495,"ELEMENT_SET_NO":999,"REV_AT_EPOCH":17222,"BSTAR":0.0045370966,"MEAN_MOTION_DOT":0.00062488,"MEAN_MOTION_DDOT":0},{"OBJECT_NAME":"STARLINK-5363","OBJECT_ID":"2023-015BA","EPOCH":"2026-03-20T06:00:02.999808","MEAN_MOTION":15.23982777,"ECCENTRICITY":0.00012447,"INCLINATION":42.9989,"RA_OF_ASC_NODE":280.1269,"ARG_OF_PERICENTER":250.226,"MEAN_ANOMALY":327.0582,"EPHEMERIS_TYPE":0,"CLASSIFICATION_TYPE":"U","NORAD_CAT_ID":55497,"ELEMENT_SET_NO":999,"REV_AT_EPOCH":573,"BSTAR":0.0014927765,"MEAN_MOTION_DOT":0.00036785,"MEAN_MOTION_DDOT":0},{"OBJECT_NAME":"STARLINK-5365","OBJECT_ID":"2023-015BB","EPOCH":"2026-03-20T06:00:02.999808","MEAN_MOTION":15.20483951,"ECCENTRICITY":0.00023823,"INCLINATION":42.9993,"RA_OF_ASC_NODE":279.9026,"ARG_OF_PERICENTER":252.7885,"MEAN_ANOMALY":62.239,"EPHEMERIS_TYPE":0,"CLASSIFICATION_TYPE":"U","NORAD_CAT_ID":55498,"ELEMENT_SET_NO":999,"REV_AT_EPOCH":547,"BSTAR":1.8561891e-5,"MEAN_MOTION_DOT":1.7e-6,"MEAN_MOTION_DDOT":0},{"OBJECT_NAME":"STARLINK-5366","OBJECT_ID":"2023-015BC","EPOCH":"2026-03-20T06:00:02.999808","MEAN_MOTION":15.23346977,"ECCENTRICITY":0.00021225,"INCLINATION":42.9992,"RA_OF_ASC_NODE":279.6404,"ARG_OF_PERICENTER":262.8792,"MEAN_ANOMALY":161.295,"EPHEMERIS_TYPE":0,"CLASSIFICATION_TYPE":"U","NORAD_CAT_ID":55499,"ELEMENT_SET_NO":999,"REV_AT_EPOCH":577,"BSTAR":0.00044293257,"MEAN_MOTION_DOT":0.00010494,"MEAN_MOTION_DDOT":0}]
